[{"OBJECT_NAME":"STARLINK-2667","OBJECT_ID":"2021-044AB","EPOCH":"2026-03-09T09:24:45.588384","MEAN_MOTION":15.30194564,"ECCENTRICITY":0.00013415,"INCLINATION":53.1586,"RA_OF_ASC_NODE":105.209,"ARG_OF_PERICENTER":84.4457,"MEAN_ANOMALY":275.6697,"EPHEMERIS_TYPE":0,"CLASSIFICATION_TYPE":"U","NORAD_CAT_ID":48663,"ELEMENT_SET_NO":999,"REV_AT_EPOCH":26392,"BSTAR":-1.6986694e-5,"MEAN_MOTION_DOT":-8.62e-6,"MEAN_MOTION_DDOT":0},{"OBJECT_NAME":"CSTP 1.2 (STC 1.2)","OBJECT_ID":"2023-091W","EPOCH":"2026-03-09T23:12:27.821952","MEAN_MOTION":15.2718076,"ECCENTRICITY":0.00204388,"INCLINATION":97.5258,"RA_OF_ASC_NODE":134.3262,"ARG_OF_PERICENTER":84.9592,"MEAN_ANOMALY":275.3979,"EPHEMERIS_TYPE":0,"CLASSIFICATION_TYPE":"U","NORAD_CAT_ID":57186,"ELEMENT_SET_NO":999,"REV_AT_EPOCH":14930,"BSTAR":0.00043035718,"MEAN_MOTION_DOT":0.00011466,"MEAN_MOTION_DDOT":0}]
